CCSDS_OMM_VERS = 2.0
CREATION_DATE  = 
ORIGINATOR     = 

OBJECT_NAME    = ISS (ZARYA)
OBJECT_ID      = 1998-067A
CENTER_NAME    = EARTH
REF_FRAME      = TEME
TIME_SYSTEM    = UTC
MEAN_ELEMENT_THEORY = SGP/SGP4

EPOCH          = 2025-12-22T15:58:44.561856
MEAN_MOTION    = 15.49732869
ECCENTRICITY   = .00031542
INCLINATION    = 51.6326
RA_OF_ASC_NODE = 93.3232
ARG_OF_PERICENTER = 286.8846
MEAN_ANOMALY   = 73.1797

EPHEMERIS_TYPE = 0
CLASSIFICATION_TYPE = U
NORAD_CAT_ID   = 25544
ELEMENT_SET_NO = 999
REV_AT_EPOCH   = 54439
BSTAR          = .22188304E-3
MEAN_MOTION_DOT = .1211E-3
MEAN_MOTION_DDOT = 0

CCSDS_OMM_VERS = 2.0
CREATION_DATE  = 
ORIGINATOR     = 

OBJECT_NAME    = CSS (TIANHE)
OBJECT_ID      = 2021-035A
CENTER_NAME    = EARTH
REF_FRAME      = TEME
TIME_SYSTEM    = UTC
MEAN_ELEMENT_THEORY = SGP/SGP4

EPOCH          = 2025-12-22T20:00:27.776448
MEAN_MOTION    = 15.59577421
ECCENTRICITY   = .00078985
INCLINATION    = 41.4686
RA_OF_ASC_NODE = 315.4090
ARG_OF_PERICENTER = 119.6774
MEAN_ANOMALY   = 240.4851

EPHEMERIS_TYPE = 0
CLASSIFICATION_TYPE = U
NORAD_CAT_ID   = 48274
ELEMENT_SET_NO = 999
REV_AT_EPOCH   = 26560
BSTAR          = .20454E-3
MEAN_MOTION_DOT = .16458E-3
MEAN_MOTION_DDOT = 0

CCSDS_OMM_VERS = 2.0
CREATION_DATE  = 
ORIGINATOR     = 

OBJECT_NAME    = ISS (NAUKA)
OBJECT_ID      = 2021-066A
CENTER_NAME    = EARTH
REF_FRAME      = TEME
TIME_SYSTEM    = UTC
MEAN_ELEMENT_THEORY = SGP/SGP4

EPOCH          = 2025-12-22T15:58:44.561856
MEAN_MOTION    = 15.49732869
ECCENTRICITY   = .00031542
INCLINATION    = 51.6326
RA_OF_ASC_NODE = 93.3232
ARG_OF_PERICENTER = 286.8846
MEAN_ANOMALY   = 73.1797

EPHEMERIS_TYPE = 0
CLASSIFICATION_TYPE = U
NORAD_CAT_ID   = 49044
ELEMENT_SET_NO = 999
REV_AT_EPOCH   = 23044
BSTAR          = .22188304E-3
MEAN_MOTION_DOT = .1211E-3
MEAN_MOTION_DDOT = 0

CCSDS_OMM_VERS = 2.0
CREATION_DATE  = 
ORIGINATOR     = 

OBJECT_NAME    = CSS (WENTIAN)
OBJECT_ID      = 2022-085A
CENTER_NAME    = EARTH
REF_FRAME      = TEME
TIME_SYSTEM    = UTC
MEAN_ELEMENT_THEORY = SGP/SGP4

EPOCH          = 2025-12-22T20:00:27.776448
MEAN_MOTION    = 15.59577421
ECCENTRICITY   = .00078985
INCLINATION    = 41.4686
RA_OF_ASC_NODE = 315.4090
ARG_OF_PERICENTER = 119.6774
MEAN_ANOMALY   = 240.4851

EPHEMERIS_TYPE = 0
CLASSIFICATION_TYPE = U
NORAD_CAT_ID   = 53239
ELEMENT_SET_NO = 999
REV_AT_EPOCH   = 17384
BSTAR          = .20454E-3
MEAN_MOTION_DOT = .16458E-3
MEAN_MOTION_DDOT = 0

CCSDS_OMM_VERS = 2.0
CREATION_DATE  = 
ORIGINATOR     = 

OBJECT_NAME    = CSS (MENGTIAN)
OBJECT_ID      = 2022-143A
CENTER_NAME    = EARTH
REF_FRAME      = TEME
TIME_SYSTEM    = UTC
MEAN_ELEMENT_THEORY = SGP/SGP4

EPOCH          = 2025-12-22T20:00:27.776448
MEAN_MOTION    = 15.59577421
ECCENTRICITY   = .00078985
INCLINATION    = 41.4686
RA_OF_ASC_NODE = 315.4090
ARG_OF_PERICENTER = 119.6774
MEAN_ANOMALY   = 240.4851

EPHEMERIS_TYPE = 0
CLASSIFICATION_TYPE = U
NORAD_CAT_ID   = 54216
ELEMENT_SET_NO = 999
REV_AT_EPOCH   = 15864
BSTAR          = .20454E-3
MEAN_MOTION_DOT = .16458E-3
MEAN_MOTION_DDOT = 0

CCSDS_OMM_VERS = 2.0
CREATION_DATE  = 
ORIGINATOR     = 

OBJECT_NAME    = SHENZHOU-20 (SZ-20)
OBJECT_ID      = 2025-082A
CENTER_NAME    = EARTH
REF_FRAME      = TEME
TIME_SYSTEM    = UTC
MEAN_ELEMENT_THEORY = SGP/SGP4

EPOCH          = 2025-12-22T20:00:27.776448
MEAN_MOTION    = 15.59577421
ECCENTRICITY   = .00078985
INCLINATION    = 41.4686
RA_OF_ASC_NODE = 315.4090
ARG_OF_PERICENTER = 119.6774
MEAN_ANOMALY   = 240.4851

EPHEMERIS_TYPE = 0
CLASSIFICATION_TYPE = U
NORAD_CAT_ID   = 63632
ELEMENT_SET_NO = 999
REV_AT_EPOCH   = 25530
BSTAR          = .20454E-3
MEAN_MOTION_DOT = .16458E-3
MEAN_MOTION_DDOT = 0

CCSDS_OMM_VERS = 2.0
CREATION_DATE  = 
ORIGINATOR     = 

OBJECT_NAME    = PROGRESS-MS 31
OBJECT_ID      = 2025-146A
CENTER_NAME    = EARTH
REF_FRAME      = TEME
TIME_SYSTEM    = UTC
MEAN_ELEMENT_THEORY = SGP/SGP4

EPOCH          = 2025-12-22T15:58:44.561856
MEAN_MOTION    = 15.49732869
ECCENTRICITY   = .00031542
INCLINATION    = 51.6326
RA_OF_ASC_NODE = 93.3232
ARG_OF_PERICENTER = 286.8846
MEAN_ANOMALY   = 73.1797

EPHEMERIS_TYPE = 0
CLASSIFICATION_TYPE = U
NORAD_CAT_ID   = 64751
ELEMENT_SET_NO = 999
REV_AT_EPOCH   = 675
BSTAR          = .22188304E-3
MEAN_MOTION_DOT = .1211E-3
MEAN_MOTION_DDOT = 0

CCSDS_OMM_VERS = 2.0
CREATION_DATE  = 
ORIGINATOR     = 

OBJECT_NAME    = TIANZHOU-9
OBJECT_ID      = 2025-149A
CENTER_NAME    = EARTH
REF_FRAME      = TEME
TIME_SYSTEM    = UTC
MEAN_ELEMENT_THEORY = SGP/SGP4

EPOCH          = 2025-12-22T20:00:27.776448
MEAN_MOTION    = 15.59577421
ECCENTRICITY   = .00078985
INCLINATION    = 41.4686
RA_OF_ASC_NODE = 315.4090
ARG_OF_PERICENTER = 119.6774
MEAN_ANOMALY   = 240.4851

EPHEMERIS_TYPE = 0
CLASSIFICATION_TYPE = U
NORAD_CAT_ID   = 64786
ELEMENT_SET_NO = 999
REV_AT_EPOCH   = 25530
BSTAR          = .20454E-3
MEAN_MOTION_DOT = .16458E-3
MEAN_MOTION_DDOT = 0

CCSDS_OMM_VERS = 2.0
CREATION_DATE  = 
ORIGINATOR     = 

OBJECT_NAME    = CREW DRAGON 11
OBJECT_ID      = 2025-166A
CENTER_NAME    = EARTH
REF_FRAME      = TEME
TIME_SYSTEM    = UTC
MEAN_ELEMENT_THEORY = SGP/SGP4

EPOCH          = 2025-12-22T15:58:44.561856
MEAN_MOTION    = 15.49732869
ECCENTRICITY   = .00031542
INCLINATION    = 51.6326
RA_OF_ASC_NODE = 93.3232
ARG_OF_PERICENTER = 286.8846
MEAN_ANOMALY   = 73.1797

EPHEMERIS_TYPE = 0
CLASSIFICATION_TYPE = U
NORAD_CAT_ID   = 65077
ELEMENT_SET_NO = 999
REV_AT_EPOCH   = 214
BSTAR          = .22188304E-3
MEAN_MOTION_DOT = .1211E-3
MEAN_MOTION_DDOT = 0

CCSDS_OMM_VERS = 2.0
CREATION_DATE  = 
ORIGINATOR     = 

OBJECT_NAME    = DRAGON CRS-33
OBJECT_ID      = 2025-186A
CENTER_NAME    = EARTH
REF_FRAME      = TEME
TIME_SYSTEM    = UTC
MEAN_ELEMENT_THEORY = SGP/SGP4

EPOCH          = 2025-12-22T15:58:44.561856
MEAN_MOTION    = 15.49732869
ECCENTRICITY   = .00031542
INCLINATION    = 51.6326
RA_OF_ASC_NODE = 93.3232
ARG_OF_PERICENTER = 286.8846
MEAN_ANOMALY   = 73.1797

EPHEMERIS_TYPE = 0
CLASSIFICATION_TYPE = U
NORAD_CAT_ID   = 65304
ELEMENT_SET_NO = 999
REV_AT_EPOCH   = 11
BSTAR          = .22188304E-3
MEAN_MOTION_DOT = .1211E-3
MEAN_MOTION_DDOT = 0

CCSDS_OMM_VERS = 2.0
CREATION_DATE  = 
ORIGINATOR     = 

OBJECT_NAME    = PROGRESS-MS 32
OBJECT_ID      = 2025-204A
CENTER_NAME    = EARTH
REF_FRAME      = TEME
TIME_SYSTEM    = UTC
MEAN_ELEMENT_THEORY = SGP/SGP4

EPOCH          = 2025-12-22T15:58:44.561856
MEAN_MOTION    = 15.49732869
ECCENTRICITY   = .00031542
INCLINATION    = 51.6326
RA_OF_ASC_NODE = 93.3232
ARG_OF_PERICENTER = 286.8846
MEAN_ANOMALY   = 73.1797

EPHEMERIS_TYPE = 0
CLASSIFICATION_TYPE = U
NORAD_CAT_ID   = 65586
ELEMENT_SET_NO = 999
REV_AT_EPOCH   = 27
BSTAR          = .22188304E-3
MEAN_MOTION_DOT = .1211E-3
MEAN_MOTION_DDOT = 0

