ISS (ZARYA)             
1 25544U 98067A   25356.66579354  .00012110  00000+0  22188-3 0  9994
2 25544  51.6326  93.3232 0003154 286.8846  73.1797 15.49732869544395
CSS (TIANHE)            
1 48274U 21035A   25356.83365482  .00016458  00000+0  20454-3 0  9997
2 48274  41.4686 315.4090 0007898 119.6774 240.4851 15.59577421265604
ISS (NAUKA)             
1 49044U 21066A   25356.66579354  .00012110  00000+0  22188-3 0  9990
2 49044  51.6326  93.3232 0003154 286.8846  73.1797 15.49732869230444
CSS (WENTIAN)           
1 53239U 22085A   25356.83365482  .00016458  00000+0  20454-3 0  9990
2 53239  41.4686 315.4090 0007898 119.6774 240.4851 15.59577421173845
CSS (MENGTIAN)          
1 54216U 22143A   25356.83365482  .00016458  00000+0  20454-3 0  9991
2 54216  41.4686 315.4090 0007898 119.6774 240.4851 15.59577421158642
SHENZHOU-20 (SZ-20)     
1 63632U 25082A   25356.83365482  .00016458  00000+0  20454-3 0  9998
2 63632  41.4686 315.4090 0007898 119.6774 240.4851 15.59577421255305
PROGRESS-MS 31          
1 64751U 25146A   25356.66579354  .00012110  00000+0  22188-3 0  9995
2 64751  51.6326  93.3232 0003154 286.8846  73.1797 15.49732869  6751
TIANZHOU-9              
1 64786U 25149A   25356.83365482  .00016458  00000+0  20454-3 0  9993
2 64786  41.4686 315.4090 0007898 119.6774 240.4851 15.59577421255306
CREW DRAGON 11          
1 65077U 25166A   25356.66579354  .00012110  00000+0  22188-3 0  9999
2 65077  51.6326  93.3232 0003154 286.8846  73.1797 15.49732869  2142
DRAGON CRS-33           
1 65304U 25186A   25356.66579354  .00012110  00000+0  22188-3 0  9994
2 65304  51.6326  93.3232 0003154 286.8846  73.1797 15.49732869   110
PROGRESS-MS 32          
1 65586U 25204A   25356.66579354  .00012110  00000+0  22188-3 0  9997
2 65586  51.6326  93.3232 0003154 286.8846  73.1797 15.49732869   279
